GLOBALSTAR M080         
1 38041U 11080B   26197.29434700 -.00000079  00000+0  14066-3 0  9996
2 38041  52.0068 290.4004 0000290  81.1357 313.3057 12.62257491672561
GLOBALSTAR M082         
1 38042U 11080C   26197.15154896 -.00000077  00000+0  15136-3 0  9994
2 38042  52.0061 246.3389 0000189  83.9753 311.2190 12.62264282673256
GLOBALSTAR M092         
1 38043U 11080D   26196.83693785 -.00000088  00000+0  88256-4 0  9990
2 38043  52.0105 337.6936 0000779 103.6458  60.5815 12.62267811671667
GLOBALSTAR M090         
1 38044U 11080E   26196.31700969 -.00000053  00000+0  28459-3 0  9997
2 38044  52.0106 242.8440 0000427  91.1185 348.7415 12.62269578673261
GLOBALSTAR M086         
1 38045U 11080F   26197.11643383 -.00000091  00000+0  70587-4 0  9995
2 38045  51.9877 240.2921 0001497 113.1498 264.9646 12.62287791673319
GLOBALSTAR M097         
1 39072U 13005A   26197.06506689 -.00000127  00000+0 -12859-3 0  9994
2 39072  52.0027 155.4281 0000460  40.9280 319.1621 12.62271364620553
GLOBALSTAR M093         
1 39073U 13005B   26197.27585676 -.00000114  00000+0 -54395-4 0  9999
2 39073  52.0089 148.1445 0000681  45.9668 314.1255 12.62266320620535
GLOBALSTAR M094         
1 39074U 13005C   26197.03816030 -.00000087  00000+0  91638-4 0  9994
2 39074  51.9970  62.9567 0001018  64.0389 296.0582 12.62264172622118
GLOBALSTAR M096         
1 39075U 13005D   26197.13087083 -.00000094  00000+0  53762-4 0  9998
2 39075  52.0071 111.4982 0000764  44.1269 315.9659 12.62265718621041
GLOBALSTAR M078         
1 39076U 13005E   26197.18318524 -.00000123  00000+0 -10859-3 0  9994
2 39076  51.9845 195.3095 0000854 340.9626  19.1209 12.62260137619679
GLOBALSTAR M095         
1 39077U 13005F   26197.13067886 -.00000123  00000+0 -10617-3 0  9994
2 39077  52.0053 193.1140 0000474  14.2111 345.8769 12.62264131619520
GLOBALSTAR M087         
1 52888U 22064A   26196.66868377 -.00000103  00000+0  43333-5 0  9995
2 52888  52.0013 335.7423 0000918  85.2007 274.8964 12.62269258194738
